{
  "norad_id": 60149,
  "name": "STARLINK-32022",
  "history": [
    {
      "epoch": "2026-03-28T16:14:03.463872Z",
      "apogee_km": 475.86918735256404,
      "perigee_km": 474.61501897668586,
      "latitude_deg": 4.1021046544475975e-05,
      "longitude_deg": 162.0845430971329,
      "height_km": 476.0174170629294,
      "semi_major_axis_km": 6853.379103164625,
      "eccentricity": 9.15e-05,
      "inclination_deg": 53.16,
      "raan_deg": 231.6924,
      "arg_perigee_deg": 78.6645,
      "mean_anomaly_deg": 281.4459,
      "mean_motion_rev_day": 15.30190946
    }
  ]
}